QIANFAN-89              
1 63175U 25046S   25319.47280470  .00000126  00000+0  17668-3 0  9990
2 63175  88.9755 322.8627 0015782 198.3436 161.7148 13.50977205 43726
QIANFAN-90              
1 63176U 25046T   25319.50154012  .00000056  00000+0  67991-4 0  9994
2 63176  88.9755 322.8321 0012785 194.8811 165.1966 13.50974571 43747
QIANFAN-91              
1 66033U 25233A   25319.32814784  .00001022  00000+0  45672-3 0  9991
2 66033  88.9943  65.1971 0016413 120.6121 239.6691 14.21913103  4137
QIANFAN-92              
1 66034U 25233B   25318.62396559  .00001097  00000+0  48637-3 0  9995
2 66034  88.9958  65.2691 0016494 123.0711 237.2067 14.22369346  4030
QIANFAN-93              
1 66035U 25233C   25319.25385573  .00001203  00000+0  53206-3 0  9997
2 66035  88.9961  65.1965 0016359 122.3494 237.9284 14.22546147  4122
QIANFAN-94              
1 66036U 25233D   25318.62181117  .00001110  00000+0  49238-3 0  9993
2 66036  88.9960  65.2692 0016050 122.2945 237.9803 14.22350782  4033
QIANFAN-95              
1 66037U 25233E   25319.45931559  .00001317  00000+0  54363-3 0  9993
2 66037  88.9961  65.1715 0016222 121.9862 238.2911 14.26178473  4151
QIANFAN-96              
1 66038U 25233F   25318.55094773  .00000970  00000+0  42982-3 0  9990
2 66038  88.9959  65.2770 0016690 125.3092 234.9663 14.22262821  4023
